{"type": "FeatureCollection", "features": [ {"type": "Feature", "properties": {"norad_id": 29999, "name": "FENGYUN 1C DEB", "group": "fengyun-1c-debris", "lat": 18.672117854468162, "lon": -39.83527484545264, "alt_km": 913.3055327699585, "timestamp": "2025-12-04T13:52:00.715753+00:00", "meta": {"OBJECT_NAME": "FENGYUN 1C DEB", "OBJECT_ID": "1999-025LZ", "EPOCH": "2025-12-04T05:22:22.647072", "MEAN_MOTION": 14.2011734, "ECCENTRICITY": 0.01892324, "INCLINATION": 98.5757, "RA_OF_ASC_NODE": 322.7445, "ARG_OF_PERICENTER": 151.123, "MEAN_ANOMALY": 221.1966, "EPHEMERIS_TYPE": 0, "CLASSIFICATION_TYPE": "U", "NORAD_CAT_ID": 29999, "ELEMENT_SET_NO": 999, "REV_AT_EPOCH": 97603, "BSTAR": 0.00045815917, "MEAN_MOTION_DOT": 1.126e-05, "MEAN_MOTION_DDOT": 0}, "tle": {"line1": "1 29999U 99025LZ  25338.22387323  .00001126  00000+0  45816-3 0  9990", "line2": "2 29999  98.5757 322.7445 0189232 151.1230 221.1966 14.20117340976031"}}, "geometry": {"type": "Point", "coordinates": [-39.83527484545264, 18.672117854468162]}}, {"type": "Feature", "properties": {"norad_id": 30001, "name": "FENGYUN 1C DEB", "group": "fengyun-1c-debris", "lat": 29.997298974345625, "lon": -121.50209674762509, "alt_km": 737.3987987642895, "timestamp": "2025-12-04T13:52:00.715763+00:00", "meta": {"OBJECT_NAME": "FENGYUN 1C DEB", "OBJECT_ID": "1999-025MA", "EPOCH": "2025-12-03T17:43:27.524928", "MEAN_MOTION": 14.38335582, "ECCENTRICITY": 0.00392084, "INCLINATION": 98.9608, "RA_OF_ASC_NODE": 52.3964, "ARG_OF_PERICENTER": 124.8811, "MEAN_ANOMALY": 1.0879, "EPHEMERIS_TYPE": 0, "CLASSIFICATION_TYPE": "U", "NORAD_CAT_ID": 30001, "ELEMENT_SET_NO": 999, "REV_AT_EPOCH": 97302, "BSTAR": 0.0041402248, "MEAN_MOTION_DOT": 0.00012696, "MEAN_MOTION_DDOT": 0}, "tle": {"line1": "1 30001U 99025MA  25337.73851302  .00012696  00000+0  41402-2 0  9994", "line2": "2 30001  98.9608  52.3964 0039208 124.8811   1.0879 14.38335582973020"}}, "geometry": {"type": "Point", "coordinates": [-121.50209674762509, 29.997298974345625]}}, {"type": "Feature", "properties": {"norad_id": 30003, "name": "FENGYUN 1C DEB", "group": "fengyun-1c-debris", "lat": 64.4231040676919, "lon": -67.45054028412959, "alt_km": 909.4974675378953, "timestamp": "2025-12-04T13:52:00.715773+00:00", "meta": {"OBJECT_NAME": "FENGYUN 1C DEB", "OBJECT_ID": "1999-025MC", "EPOCH": "2025-12-04T04:57:47.221920", "MEAN_MOTION": 13.85615743, "ECCENTRICITY": 0.01431481, "INCLINATION": 99.5758, "RA_OF_ASC_NODE": 312.8226, "ARG_OF_PERICENTER": 142.3933, "MEAN_ANOMALY": 235.8097, "EPHEMERIS_TYPE": 0, "CLASSIFICATION_TYPE": "U", "NORAD_CAT_ID": 30003, "ELEMENT_SET_NO": 999, "REV_AT_EPOCH": 95370, "BSTAR": 0.00046562793, "MEAN_MOTION_DOT": 5.31e-06, "MEAN_MOTION_DDOT": 0}, "tle": {"line1": "1 30003U 99025MC  25338.20679655  .00000531  00000+0  46563-3 0  9997", "line2": "2 30003  99.5758 312.8226 0143148 142.3933 235.8097 13.85615743953702"}}, "geometry": {"type": "Point", "coordinates": [-67.45054028412959, 64.4231040676919]}}, {"type": "Feature", "properties": {"norad_id": 30004, "name": "FENGYUN 1C DEB", "group": "fengyun-1c-debris", "lat": 61.01794517490271, "lon": 142.3356360708445, "alt_km": 813.9275202699073, "timestamp": "2025-12-04T13:52:00.715784+00:00", "meta": {"OBJECT_NAME": "FENGYUN 1C DEB", "OBJECT_ID": "1999-025MD", "EPOCH": "2025-12-04T05:56:30.272640", "MEAN_MOTION": 14.17024318, "ECCENTRICITY": 0.00388508, "INCLINATION": 99.2237, "RA_OF_ASC_NODE": 159.0526, "ARG_OF_PERICENTER": 6.8161, "MEAN_ANOMALY": 171.6847, "EPHEMERIS_TYPE": 0, "CLASSIFICATION_TYPE": "U", "NORAD_CAT_ID": 30004, "ELEMENT_SET_NO": 999, "REV_AT_EPOCH": 97186, "BSTAR": 0.0011842052, "MEAN_MOTION_DOT": 2.351e-05, "MEAN_MOTION_DDOT": 0}, "tle": {"line1": "1 30004U 99025MD  25338.24757260  .00002351  00000+0  11842-2 0  9994", "line2": "2 30004  99.2237 159.0526 0038850   6.8161 171.6847 14.17024318971861"}}, "geometry": {"type": "Point", "coordinates": [142.3356360708445, 61.01794517490271]}}, {"type": "Feature", "properties": {"norad_id": 30005, "name": "FENGYUN 1C DEB", "group": "fengyun-1c-debris", "lat": -6.1185635721474485, "lon": -57.969198604785426, "alt_km": 1190.2982035482028, "timestamp": "2025-12-04T13:52:00.715794+00:00", "meta": {"OBJECT_NAME": "FENGYUN 1C DEB", "OBJECT_ID": "1999-025ME", "EPOCH": "2025-12-04T03:14:35.893824", "MEAN_MOTION": 13.52190041, "ECCENTRICITY": 0.03464908, "INCLINATION": 99.3015, "RA_OF_ASC_NODE": 300.6084, "ARG_OF_PERICENTER": 115.1263, "MEAN_ANOMALY": 248.624, "EPHEMERIS_TYPE": 0, "CLASSIFICATION_TYPE": "U", "NORAD_CAT_ID": 30005, "ELEMENT_SET_NO": 999, "REV_AT_EPOCH": 92830, "BSTAR": 0.0015922004, "MEAN_MOTION_DOT": 1.492e-05, "MEAN_MOTION_DDOT": 0}, "tle": {"line1": "1 30005U 99025ME  25338.13513766  .00001492  00000+0  15922-2 0  9992", "line2": "2 30005  99.3015 300.6084 0346490 115.1263 248.6240 13.52190041928307"}}, "geometry": {"type": "Point", "coordinates": [-57.969198604785426, -6.1185635721474485]}}, {"type": "Feature", "properties": {"norad_id": 30007, "name": "FENGYUN 1C DEB", "group": "fengyun-1c-debris", "lat": -53.66368579660641, "lon": 46.85131674763603, "alt_km": 859.4813542236616, "timestamp": "2025-12-04T13:52:00.715804+00:00", "meta": {"OBJECT_NAME": "FENGYUN 1C DEB", "OBJECT_ID": "1999-025MG", "EPOCH": "2025-12-04T05:03:09.205344", "MEAN_MOTION": 14.25303228, "ECCENTRICITY": 0.00656749, "INCLINATION": 99.178, "RA_OF_ASC_NODE": 239.1646, "ARG_OF_PERICENTER": 38.5582, "MEAN_ANOMALY": 112.8663, "EPHEMERIS_TYPE": 0, "CLASSIFICATION_TYPE": "U", "NORAD_CAT_ID": 30007, "ELEMENT_SET_NO": 999, "REV_AT_EPOCH": 97234, "BSTAR": 0.0041655693, "MEAN_MOTION_DOT": 9.997e-05, "MEAN_MOTION_DDOT": 0}, "tle": {"line1": "1 30007U 99025MG  25338.21052321  .00009997  00000+0  41656-2 0  9999", "line2": "2 30007  99.1780 239.1646 0065674  38.5582 112.8663 14.25303228972348"}}, "geometry": {"type": "Point", "coordinates": [46.85131674763603, -53.66368579660641]}}, {"type": "Feature", "properties": {"norad_id": 30008, "name": "FENGYUN 1C DEB", "group": "fengyun-1c-debris", "lat": 13.677143540904659, "lon": -68.49215777382578, "alt_km": 699.7064281349612, "timestamp": "2025-12-04T13:52:00.715814+00:00", "meta": {"OBJECT_NAME": "FENGYUN 1C DEB", "OBJECT_ID": "1999-025MH", "EPOCH": "2025-12-03T20:04:08.392800", "MEAN_MOTION": 14.65958536, "ECCENTRICITY": 0.00385986, "INCLINATION": 99.3674, "RA_OF_ASC_NODE": 292.9652, "ARG_OF_PERICENTER": 220.5649, "MEAN_ANOMALY": 201.8099, "EPHEMERIS_TYPE": 0, "CLASSIFICATION_TYPE": "U", "NORAD_CAT_ID": 30008, "ELEMENT_SET_NO": 999, "REV_AT_EPOCH": 98929, "BSTAR": 0.0033009413, "MEAN_MOTION_DOT": 0.00018255, "MEAN_MOTION_DDOT": 0}, "tle": {"line1": "1 30008U 99025MH  25337.83620825  .00018255  00000+0  33009-2 0  9997", "line2": "2 30008  99.3674 292.9652 0038598 220.5649 201.8099 14.65958536989295"}}, "geometry": {"type": "Point", "coordinates": [-68.49215777382578, 13.677143540904659]}}, {"type": "Feature", "properties": {"norad_id": 30009, "name": "FENGYUN 1C DEB", "group": "fengyun-1c-debris", "lat": 71.5183357325048, "lon": 5.196673424618973, "alt_km": 857.9343018916243, "timestamp": "2025-12-04T13:52:00.715824+00:00", "meta": {"OBJECT_NAME": "FENGYUN 1C DEB", "OBJECT_ID": "1999-025MJ", "EPOCH": "2025-12-04T03:15:51.095520", "MEAN_MOTION": 14.04827, "ECCENTRICITY": 0.00638442, "INCLINATION": 99.0153, "RA_OF_ASC_NODE": 33.1161, "ARG_OF_PERICENTER": 0.0417, "MEAN_ANOMALY": 0.0745, "EPHEMERIS_TYPE": 0, "CLASSIFICATION_TYPE": "U", "NORAD_CAT_ID": 30009, "ELEMENT_SET_NO": 999, "REV_AT_EPOCH": 96362, "BSTAR": 0.00092479551, "MEAN_MOTION_DOT": 1.467e-05, "MEAN_MOTION_DDOT": 0}, "tle": {"line1": "1 30009U 99025MJ  25338.13600805  .00001467  00000+0  92480-3 0  9994", "line2": "2 30009  99.0153  33.1161 0063844   0.0417   0.0745 14.04827000963621"}}, "geometry": {"type": "Point", "coordinates": [5.196673424618973, 71.5183357325048]}}, {"type": "Feature", "properties": {"norad_id": 30010, "name": "FENGYUN 1C DEB", "group": "fengyun-1c-debris", "lat": 33.154259642129894, "lon": 164.47223817009524, "alt_km": 855.5335856709362, "timestamp": "2025-12-04T13:52:00.715834+00:00", "meta": {"OBJECT_NAME": "FENGYUN 1C DEB", "OBJECT_ID": "1999-025MK", "EPOCH": "2025-12-04T02:28:32.994624", "MEAN_MOTION": 14.2497825, "ECCENTRICITY": 0.00724048, "INCLINATION": 99.0703, "RA_OF_ASC_NODE": 169.9718, "ARG_OF_PERICENTER": 234.4232, "MEAN_ANOMALY": 245.5897, "EPHEMERIS_TYPE": 0, "CLASSIFICATION_TYPE": "U", "NORAD_CAT_ID": 30010, "ELEMENT_SET_NO": 999, "REV_AT_EPOCH": 98137, "BSTAR": 0.00025939711, "MEAN_MOTION_DOT": 5.76e-06, "MEAN_MOTION_DDOT": 0}, "tle": {"line1": "1 30010U 99025MK  25338.10315966  .00000576  00000+0  25940-3 0  9991", "line2": "2 30010  99.0703 169.9718 0072404 234.4232 245.5897 14.24978250981372"}}, "geometry": {"type": "Point", "coordinates": [164.47223817009524, 33.154259642129894]}}, {"type": "Feature", "properties": {"norad_id": 30012, "name": "FENGYUN 1C DEB", "group": "fengyun-1c-debris", "lat": 54.591246036524275, "lon": 18.155415634889565, "alt_km": 973.8730234449085, "timestamp": "2025-12-04T13:52:00.715844+00:00", "meta": {"OBJECT_NAME": "FENGYUN 1C DEB", "OBJECT_ID": "1999-025MM", "EPOCH": "2025-12-04T03:28:05.528352", "MEAN_MOTION": 13.8575614, "ECCENTRICITY": 0.01368436, "INCLINATION": 99.4655, "RA_OF_ASC_NODE": 31.2901, "ARG_OF_PERICENTER": 168.4613, "MEAN_ANOMALY": 248.433, "EPHEMERIS_TYPE": 0, "CLASSIFICATION_TYPE": "U", "NORAD_CAT_ID": 30012, "ELEMENT_SET_NO": 999, "REV_AT_EPOCH": 95429, "BSTAR": 0.00052336931, "MEAN_MOTION_DOT": 6e-06, "MEAN_MOTION_DDOT": 0}, "tle": {"line1": "1 30012U 99025MM  25338.14450843  .00000600  00000+0  52337-3 0  9999", "line2": "2 30012  99.4655  31.2901 0136843 168.4613 248.4330 13.85756140954299"}}, "geometry": {"type": "Point", "coordinates": [18.155415634889565, 54.591246036524275]}}]}